OBJECT_NAME,OBJECT_ID,EPOCH,MEAN_MOTION,ECCENTRICITY,INCLINATION,RA_OF_ASC_NODE,ARG_OF_PERICENTER,MEAN_ANOMALY,EPHEMERIS_TYPE,CLASSIFICATION_TYPE,NORAD_CAT_ID,ELEMENT_SET_NO,REV_AT_EPOCH,BSTAR,MEAN_MOTION_DOT,MEAN_MOTION_DDOT
KUZGTU 1 (RS47S),2023-091AV,2026-07-11T22:47:38.922720,15.30422932,.00104345,97.5058,257.6891,17.8357,342.3248,0,U,57217,999,16816,.24393575E-3,.7109E-4,0
SONATE-2,2024-043Q,2026-07-11T09:22:27.232608,15.60605233,.00068135,97.5544,344.3084,117.4206,242.7744,0,U,59112,999,13166,.35467523E-3,.29289E-3,0
MESAT1,2024-125G,2026-07-11T14:26:31.165440,15.66096766,.00109622,97.2263,50.6867,123.9142,236.3162,0,U,60209,999,11338,.39351413E-3,.40433E-3,0
OOV-CUBE (TUBSAT-30),2024-128F,2026-07-11T09:47:33.954432,15.02864718,.00415826,61.9942,141.1095,139.1306,221.2916,0,U,60240,999,10975,.10330684E-3,.1201E-4,0
COLIBRI-S (RS67S),2024-199M,2026-07-11T22:41:03.332544,15.48755520,.00085783,97.2966,67.0386,173.5349,186.6015,0,U,61746,999,14124,.2709349E-3,.1447E-3,0
HORS 3 (RS81S),2024-199U,2026-07-11T21:58:28.212384,15.56734140,.00067518,97.2946,69.2758,165.9996,194.1448,0,U,61753,999,14140,.32458228E-3,.23144E-3,0
HORS 4 (RS82S),2024-199V,2026-07-11T22:11:31.423200,15.62137521,.00066695,97.2889,70.6580,157.6264,202.5286,0,U,61754,999,14150,.38819802E-3,.34038E-3,0
SIT-2086,2024-199AF,2026-07-11T22:10:26.825376,15.54847558,.00078536,97.2904,69.6748,154.6717,205.4923,0,U,61764,999,13827,.36843025E-3,.24533E-3,0
HYPERVIEW 1G (RS66S),2024-199AP,2026-07-11T21:28:08.443488,15.84178961,.00082077,97.2810,74.0000,154.1223,206.0459,0,U,61772,999,13857,.7465888E-3,.170669E-2,0
ALTAIR (RS65S),2024-199AW,2026-07-11T21:54:14.371776,15.37462067,.00116773,97.3004,62.1045,208.9042,151.1557,0,U,61779,999,14091,.16562413E-3,.6015E-4,0
ASRTU-1 (AO-123),2024-199AY,2026-07-11T22:09:13.852800,15.36023462,.00126687,97.2974,61.3730,213.0509,146.9945,0,U,61781,999,13772,.13972673E-3,.4832E-4,0
SAMSAT-IONOSPHERE (RS75S),2024-199BB,2026-07-11T21:41:20.785056,15.59893104,.00088763,97.2913,69.4081,171.1207,189.0209,0,U,61784,999,14141,.40375062E-3,.32505E-3,0
RTU MIREA 1 (RS51S),2024-199BC,2026-07-11T22:23:12.104736,15.63971390,.00089606,97.2898,70.4077,165.5933,194.5584,0,U,61785,999,13833,.43942303E-3,.41475E-3,0
TEVEL2-4,2025-052D,2026-07-11T22:52:30.281664,15.35488697,.00037895,97.3884,89.3971,58.1250,302.0362,0,U,63213,999,7391,.31703243E-3,.10858E-3,0
TEVEL2-5,2025-052E,2026-07-11T15:36:54.361152,15.35297561,.00038771,97.3876,89.0343,60.2304,299.9325,0,U,63214,999,7386,.3270793E-3,.11136E-3,0
TEVEL2-6,2025-052F,2026-07-11T15:55:28.053696,15.35261289,.00038481,97.3879,89.0323,63.3190,296.8447,0,U,63215,999,7386,.32823927E-3,.11163E-3,0
TEVEL2-1,2025-052H,2026-07-11T16:49:52.822848,15.34696214,.00044973,97.3853,88.6646,67.0289,293.1429,0,U,63217,999,7385,.31099247E-3,.10384E-3,0
TEVEL2-3,2025-052J,2026-07-11T16:40:48.579744,15.34757646,.00042625,97.3859,88.6837,68.4805,291.6893,0,U,63218,999,7385,.3010029E-3,.10066E-3,0
TEVEL2-2,2025-052K,2026-07-11T16:50:05.939232,15.34706297,.00045235,97.3852,88.6678,67.8714,292.3009,0,U,63219,999,7385,.30397995E-3,.10151E-3,0
OTP-2,2025-052AB,2026-07-11T15:35:48.616800,15.24307968,.00083062,97.3846,84.7167,80.9023,279.3154,0,U,63235,999,7359,.17810231E-3,.4286E-4,0
TEVEL2-9,2025-052AD,2026-07-11T15:29:54.901248,15.32659947,.00079425,97.3918,87.9332,66.4852,293.7224,0,U,63237,999,7377,.31581625E-3,.9894E-4,0
TEVEL2-7,2025-052AE,2026-07-11T22:51:56.303136,15.32350556,.0007982,97.3917,88.1448,65.6530,294.5545,0,U,63238,999,7381,.29965883E-3,.9292E-4,0
TEVEL2-8,2025-052AF,2026-07-11T16:48:01.545696,15.32332149,.00080555,97.3915,87.8685,67.3029,292.9064,0,U,63239,999,7377,.29863864E-3,.9255E-4,0
INNOSAT 16 (RS92S7),2025-155C,2026-07-11T22:14:10.704192,15.25717079,.00124827,97.4574,159.9817,98.2178,262.0476,0,U,64878,999,8444,.14770763E-3,.3699E-4,0
GEOSCAN 6 (RS92S6),2025-155D,2026-07-11T21:31:59.252448,15.30613477,.00099877,97.4564,161.5545,91.3785,268.8600,0,U,64879,999,8454,.21684461E-3,.6348E-4,0
GEOSCAN 1 (RS92S1),2025-155E,2026-07-11T22:55:12.307584,15.31258390,.00099522,97.4559,161.7828,91.3773,268.8608,0,U,64880,999,8456,.22684346E-3,.678E-4,0
239ALFEROV (RS61S),2025-155F,2026-07-11T22:52:40.898496,15.33611588,.00096435,97.4559,162.4285,91.0116,269.2231,0,U,64881,999,8460,.28527121E-3,.9204E-4,0
GEOSCAN 2 (RS92S2),2025-155Q,2026-07-11T22:39:58.107456,15.31516355,.00091729,97.4558,161.9343,81.4901,278.7380,0,U,64890,999,8457,.22763418E-3,.6857E-4,0
GEOSCAN 5 (RS92S5),2025-155R,2026-07-11T22:29:35.335392,15.33917676,.00086708,97.4550,162.5592,95.2873,264.9359,0,U,64891,999,8461,.28273115E-3,.9208E-4,0
GEOSCAN 4 (RS92S4),2025-155S,2026-07-11T22:03:07.050240,15.34084871,.00086075,97.4554,162.5963,95.6009,264.6216,0,U,64892,999,8461,.2873036E-3,.9408E-4,0
