KUZGTU 1 (RS47S)        
1 57217U 23091AV  26192.94975605  .00007109  00000+0  24394-3 0  9993
2 57217  97.5058 257.6891 0010434  17.8357 342.3248 15.30422932168168
SONATE-2                
1 59112U 24043Q   26192.39059297  .00029289  00000+0  35468-3 0  9993
2 59112  97.5544 344.3084 0006813 117.4206 242.7744 15.60605233131667
MESAT1                  
1 60209U 24125G   26192.60174960  .00040433  00000+0  39351-3 0  9991
2 60209  97.2263  50.6867 0010962 123.9142 236.3162 15.66096766113381
OOV-CUBE (TUBSAT-30)    
1 60240U 24128F   26192.40803188  .00001201  00000+0  10331-3 0  9995
2 60240  61.9942 141.1095 0041582 139.1306 221.2916 15.02864718109756
COLIBRI-S (RS67S)       
1 61746U 24199M   26192.94517746  .00014470  00000+0  27093-3 0  9991
2 61746  97.2966  67.0386 0008578 173.5349 186.6015 15.48755520141246
HORS 3 (RS81S)          
1 61753U 24199U   26192.91560431  .00023144  00000+0  32458-3 0  9994
2 61753  97.2946  69.2758 0006751 165.9996 194.1448 15.56734140141409
HORS 4 (RS82S)          
1 61754U 24199V   26192.92466925  .00034038  00000+0  38820-3 0  9992
2 61754  97.2889  70.6580 0006669 157.6264 202.5286 15.62137521141501
SIT-2086                
1 61764U 24199AF  26192.92392159  .00024533  00000+0  36843-3 0  9992
2 61764  97.2904  69.6748 0007853 154.6717 205.4923 15.54847558138279
HYPERVIEW 1G (RS66S)    
1 61772U 24199AP  26192.89454217  .00170669  00000+0  74659-3 0  9990
2 61772  97.2810  74.0000 0008207 154.1223 206.0459 15.84178961138578
ALTAIR (RS65S)          
1 61779U 24199AW  26192.91266634  .00006015  00000+0  16562-3 0  9996
2 61779  97.3004  62.1045 0011677 208.9042 151.1557 15.37462067140911
ASRTU-1 (AO-123)        
1 61781U 24199AY  26192.92307700  .00004832  00000+0  13973-3 0  9998
2 61781  97.2974  61.3730 0012668 213.0509 146.9945 15.36023462137726
SAMSAT-IONOSPHERE (RS7*)
1 61784U 24199BB  26192.90371279  .00032505  00000+0  40375-3 0  9995
2 61784  97.2913  69.4081 0008876 171.1207 189.0209 15.59893104141410
RTU MIREA 1 (RS51S)     
1 61785U 24199BC  26192.93277899  .00041475  00000+0  43942-3 0  9991
2 61785  97.2898  70.4077 0008960 165.5933 194.5584 15.63971390138330
TEVEL2-4                
1 63213U 25052D   26192.95312826  .00010858  00000+0  31703-3 0  9993
2 63213  97.3884  89.3971 0003789  58.1250 302.0362 15.35488697 73913
TEVEL2-5                
1 63214U 25052E   26192.65062918  .00011136  00000+0  32708-3 0  9991
2 63214  97.3876  89.0343 0003877  60.2304 299.9325 15.35297561 73862
TEVEL2-6                
1 63215U 25052F   26192.66351914  .00011163  00000+0  32824-3 0  9999
2 63215  97.3879  89.0323 0003848  63.3190 296.8447 15.35261289 73868
TEVEL2-1                
1 63217U 25052H   26192.70130582  .00010384  00000+0  31099-3 0  9999
2 63217  97.3853  88.6646 0004497  67.0289 293.1429 15.34696214 73854
TEVEL2-3                
1 63218U 25052J   26192.69500671  .00010066  00000+0  30100-3 0  9997
2 63218  97.3859  88.6837 0004262  68.4805 291.6893 15.34757646 73857
TEVEL2-2                
1 63219U 25052K   26192.70145763  .00010151  00000+0  30398-3 0  9991
2 63219  97.3852  88.6678 0004523  67.8714 292.3009 15.34706297 73859
OTP-2                   
1 63235U 25052AB  26192.64986825  .00004286  00000+0  17810-3 0  9990
2 63235  97.3846  84.7167 0008306  80.9023 279.3154 15.24307968 73590
TEVEL2-9                
1 63237U 25052AD  26192.64577432  .00009894  00000+0  31582-3 0  9994
2 63237  97.3918  87.9332 0007942  66.4852 293.7224 15.32659947 73779
TEVEL2-7                
1 63238U 25052AE  26192.95273499  .00009292  00000+0  29966-3 0  9990
2 63238  97.3917  88.1448 0007982  65.6530 294.5545 15.32350556 73812
TEVEL2-8                
1 63239U 25052AF  26192.70001789  .00009255  00000+0  29864-3 0  9991
2 63239  97.3915  87.8685 0008055  67.3029 292.9064 15.32332149 73775
INNOSAT 16 (RS92S7)     
1 64878U 25155C   26192.92651278  .00003699  00000+0  14771-3 0  9990
2 64878  97.4574 159.9817 0012482  98.2178 262.0476 15.25717079 84444
GEOSCAN 6 (RS92S6)      
1 64879U 25155D   26192.89721357  .00006348  00000+0  21684-3 0  9998
2 64879  97.4564 161.5545 0009987  91.3785 268.8600 15.30613477 84542
GEOSCAN 1 (RS92S1)      
1 64880U 25155E   26192.95500356  .00006780  00000+0  22684-3 0  9992
2 64880  97.4559 161.7828 0009952  91.3773 268.8608 15.31258390 84563
239ALFEROV (RS61S)      
1 64881U 25155F   26192.95325114  .00009204  00000+0  28527-3 0  9996
2 64881  97.4559 162.4285 0009643  91.0116 269.2231 15.33611588 84600
GEOSCAN 2 (RS92S2)      
1 64890U 25155Q   26192.94442254  .00006857  00000+0  22763-3 0  9997
2 64890  97.4558 161.9343 0009172  81.4901 278.7380 15.31516355 84570
GEOSCAN 5 (RS92S5)      
1 64891U 25155R   26192.93721453  .00009208  00000+0  28273-3 0  9993
2 64891  97.4550 162.5592 0008670  95.2873 264.9359 15.33917676 84610
GEOSCAN 4 (RS92S4)      
1 64892U 25155S   26192.91883160  .00009408  00000+0  28730-3 0  9996
2 64892  97.4554 162.5963 0008607  95.6009 264.6216 15.34084871 84614
